[{"OBJECT_NAME":"ALOS (DAICHI)","OBJECT_ID":"2006-002A","EPOCH":"2026-03-11T06:33:01.065600","MEAN_MOTION":14.69816276,"ECCENTRICITY":8.613e-5,"INCLINATION":98.122,"RA_OF_ASC_NODE":26.2204,"ARG_OF_PERICENTER":59.1063,"MEAN_ANOMALY":301.0227,"EPHEMERIS_TYPE":0,"CLASSIFICATION_TYPE":"U","NORAD_CAT_ID":28931,"ELEMENT_SET_NO":999,"REV_AT_EPOCH":7371,"BSTAR":0.00030037885,"MEAN_MOTION_DOT":1.744e-5,"MEAN_MOTION_DDOT":0},{"OBJECT_NAME":"H-2A R/B","OBJECT_ID":"2006-002B","EPOCH":"2026-03-11T07:47:42.206784","MEAN_MOTION":15.16461973,"ECCENTRICITY":0.00518632,"INCLINATION":98.2415,"RA_OF_ASC_NODE":217.489,"ARG_OF_PERICENTER":235.3293,"MEAN_ANOMALY":124.3044,"EPHEMERIS_TYPE":0,"CLASSIFICATION_TYPE":"U","NORAD_CAT_ID":28932,"ELEMENT_SET_NO":999,"REV_AT_EPOCH":9468,"BSTAR":0.00057586883,"MEAN_MOTION_DOT":0.00011526,"MEAN_MOTION_DDOT":0},{"OBJECT_NAME":"RESURS-DK 1","OBJECT_ID":"2006-021A","EPOCH":"2026-03-10T20:35:26.417760","MEAN_MOTION":15.12754122,"ECCENTRICITY":0.00018033,"INCLINATION":69.9325,"RA_OF_ASC_NODE":234.0005,"ARG_OF_PERICENTER":162.5581,"MEAN_ANOMALY":197.5648,"EPHEMERIS_TYPE":0,"CLASSIFICATION_TYPE":"U","NORAD_CAT_ID":29228,"ELEMENT_SET_NO":999,"REV_AT_EPOCH":8770,"BSTAR":0.00022500076,"MEAN_MOTION_DOT":3.848e-5,"MEAN_MOTION_DDOT":0},{"OBJECT_NAME":"CZ-4B R/B","OBJECT_ID":"2006-046C","EPOCH":"2026-03-11T03:02:02.269824","MEAN_MOTION":15.16922415,"ECCENTRICITY":0.0031668,"INCLINATION":97.5598,"RA_OF_ASC_NODE":115.0318,"ARG_OF_PERICENTER":262.0381,"MEAN_ANOMALY":97.7257,"EPHEMERIS_TYPE":0,"CLASSIFICATION_TYPE":"U","NORAD_CAT_ID":29507,"ELEMENT_SET_NO":999,"REV_AT_EPOCH":6026,"BSTAR":0.0002850231,"MEAN_MOTION_DOT":5.621e-5,"MEAN_MOTION_DDOT":0},{"OBJECT_NAME":"CZ-2C R/B","OBJECT_ID":"2007-010B","EPOCH":"2026-03-11T06:37:08.766624","MEAN_MOTION":14.202469,"ECCENTRICITY":0.00578782,"INCLINATION":98.3979,"RA_OF_ASC_NODE":183.4749,"ARG_OF_PERICENTER":289.8989,"MEAN_ANOMALY":69.5959,"EPHEMERIS_TYPE":0,"CLASSIFICATION_TYPE":"U","NORAD_CAT_ID":31114,"ELEMENT_SET_NO":999,"REV_AT_EPOCH":97994,"BSTAR":9.5897557e-5,"MEAN_MOTION_DOT":1.67e-6,"MEAN_MOTION_DDOT":0},{"OBJECT_NAME":"COSMO-SKYMED 1","OBJECT_ID":"2007-023A","EPOCH":"2026-03-11T06:27:35.777376","MEAN_MOTION":14.9654927,"ECCENTRICITY":0.00013931,"INCLINATION":97.8876,"RA_OF_ASC_NODE":261.3134,"ARG_OF_PERICENTER":99.5754,"MEAN_ANOMALY":260.5625,"EPHEMERIS_TYPE":0,"CLASSIFICATION_TYPE":"U","NORAD_CAT_ID":31598,"ELEMENT_SET_NO":999,"REV_AT_EPOCH":1514,"BSTAR":0.000377947,"MEAN_MOTION_DOT":4.24e-5,"MEAN_MOTION_DDOT":0},{"OBJECT_NAME":"COSMOS 2428","OBJECT_ID":"2007-029A","EPOCH":"2026-03-11T07:18:37.191168","MEAN_MOTION":14.12946507,"ECCENTRICITY":0.00091705,"INCLINATION":70.9434,"RA_OF_ASC_NODE":199.9534,"ARG_OF_PERICENTER":275.4913,"MEAN_ANOMALY":84.5162,"EPHEMERIS_TYPE":0,"CLASSIFICATION_TYPE":"U","NORAD_CAT_ID":31792,"ELEMENT_SET_NO":999,"REV_AT_EPOCH":96432,"BSTAR":5.427213e-5,"MEAN_MOTION_DOT":5.3e-7,"MEAN_MOTION_DDOT":0},{"OBJECT_NAME":"SL-16 R/B","OBJECT_ID":"2007-029B","EPOCH":"2026-03-11T07:55:44.482944","MEAN_MOTION":14.14833769,"ECCENTRICITY":0.00023001,"INCLINATION":70.9759,"RA_OF_ASC_NODE":168.9364,"ARG_OF_PERICENTER":275.9429,"MEAN_ANOMALY":140.9811,"EPHEMERIS_TYPE":0,"CLASSIFICATION_TYPE":"U","NORAD_CAT_ID":31793,"ELEMENT_SET_NO":999,"REV_AT_EPOCH":96560,"BSTAR":8.0316738e-5,"MEAN_MOTION_DOT":1.07e-6,"MEAN_MOTION_DDOT":0},{"OBJECT_NAME":"KORONAS-FOTON","OBJECT_ID":"2009-003A","EPOCH":"2026-03-11T01:27:53.459424","MEAN_MOTION":15.43351796,"ECCENTRICITY":0.00113368,"INCLINATION":82.4278,"RA_OF_ASC_NODE":274.4521,"ARG_OF_PERICENTER":145.1603,"MEAN_ANOMALY":215.0389,"EPHEMERIS_TYPE":0,"CLASSIFICATION_TYPE":"U","NORAD_CAT_ID":33504,"ELEMENT_SET_NO":999,"REV_AT_EPOCH":94595,"BSTAR":0.00023625077,"MEAN_MOTION_DOT":0.00010595,"MEAN_MOTION_DDOT":0},{"OBJECT_NAME":"CZ-2C R/B","OBJECT_ID":"2011-030B","EPOCH":"2026-03-11T07:39:27.076896","MEAN_MOTION":14.81230291,"ECCENTRICITY":0.00522344,"INCLINATION":97.8544,"RA_OF_ASC_NODE":27.5494,"ARG_OF_PERICENTER":346.7969,"MEAN_ANOMALY":171.9733,"EPHEMERIS_TYPE":0,"CLASSIFICATION_TYPE":"U","NORAD_CAT_ID":37731,"ELEMENT_SET_NO":999,"REV_AT_EPOCH":79033,"BSTAR":0.00027059929,"MEAN_MOTION_DOT":2.102e-5,"MEAN_MOTION_DDOT":0},{"OBJECT_NAME":"H-2A R/B","OBJECT_ID":"2012-025E","EPOCH":"2026-03-11T06:25:37.816320","MEAN_MOTION":14.95185438,"ECCENTRICITY":0.00432573,"INCLINATION":98.4739,"RA_OF_ASC_NODE":37.4406,"ARG_OF_PERICENTER":309.1902,"MEAN_ANOMALY":50.5478,"EPHEMERIS_TYPE":0,"CLASSIFICATION_TYPE":"U","NORAD_CAT_ID":38341,"ELEMENT_SET_NO":999,"REV_AT_EPOCH":74845,"BSTAR":0.00038043931,"MEAN_MOTION_DOT":4.188e-5,"MEAN_MOTION_DDOT":0},{"OBJECT_NAME":"SHIJIAN-16 (SJ-16)","OBJECT_ID":"2013-057A","EPOCH":"2026-03-11T07:19:12.495936","MEAN_MOTION":14.92357457,"ECCENTRICITY":0.00154703,"INCLINATION":74.9727,"RA_OF_ASC_NODE":182.0302,"ARG_OF_PERICENTER":108.0962,"MEAN_ANOMALY":252.1912,"EPHEMERIS_TYPE":0,"CLASSIFICATION_TYPE":"U","NORAD_CAT_ID":39358,"ELEMENT_SET_NO":999,"REV_AT_EPOCH":67174,"BSTAR":0.00041494559,"MEAN_MOTION_DOT":4.227e-5,"MEAN_MOTION_DDOT":0},{"OBJECT_NAME":"SL-4 R/B","OBJECT_ID":"2014-021B","EPOCH":"2026-03-11T02:56:01.041792","MEAN_MOTION":15.39237531,"ECCENTRICITY":0.00973583,"INCLINATION":51.608,"RA_OF_ASC_NODE":330.2898,"ARG_OF_PERICENTER":108.2387,"MEAN_ANOMALY":252.9222,"EPHEMERIS_TYPE":0,"CLASSIFICATION_TYPE":"U","NORAD_CAT_ID":39679,"ELEMENT_SET_NO":999,"REV_AT_EPOCH":65649,"BSTAR":0.00041035423,"MEAN_MOTION_DOT":0.00018747,"MEAN_MOTION_DDOT":0},{"OBJECT_NAME":"ALOS-2","OBJECT_ID":"2014-029A","EPOCH":"2026-03-11T06:35:02.724576","MEAN_MOTION":14.79512892,"ECCENTRICITY":0.00014039,"INCLINATION":97.9187,"RA_OF_ASC_NODE":168.848,"ARG_OF_PERICENTER":98.802,"MEAN_ANOMALY":261.335,"EPHEMERIS_TYPE":0,"CLASSIFICATION_TYPE":"U","NORAD_CAT_ID":39766,"ELEMENT_SET_NO":999,"REV_AT_EPOCH":63710,"BSTAR":0.00042619946,"MEAN_MOTION_DOT":3.136e-5,"MEAN_MOTION_DDOT":0},{"OBJECT_NAME":"YAOGAN-29","OBJECT_ID":"2015-069A","EPOCH":"2026-03-11T08:18:43.547040","MEAN_MOTION":14.82996622,"ECCENTRICITY":0.00018,"INCLINATION":98.0144,"RA_OF_ASC_NODE":98.7804,"ARG_OF_PERICENTER":32.3292,"MEAN_ANOMALY":327.8032,"EPHEMERIS_TYPE":0,"CLASSIFICATION_TYPE":"U","NORAD_CAT_ID":41038,"ELEMENT_SET_NO":999,"REV_AT_EPOCH":55612,"BSTAR":4.7769892e-5,"MEAN_MOTION_DOT":3.34e-6,"MEAN_MOTION_DDOT":0},{"OBJECT_NAME":"ASTRO-H (HITOMI)","OBJECT_ID":"2016-012A","EPOCH":"2026-03-11T02:07:13.989504","MEAN_MOTION":15.10017409,"ECCENTRICITY":0.00097998,"INCLINATION":31.0007,"RA_OF_ASC_NODE":347.5222,"ARG_OF_PERICENTER":345.143,"MEAN_ANOMALY":14.8919,"EPHEMERIS_TYPE":0,"CLASSIFICATION_TYPE":"U","NORAD_CAT_ID":41337,"ELEMENT_SET_NO":999,"REV_AT_EPOCH":55244,"BSTAR":0.00022451389,"MEAN_MOTION_DOT":3.838e-5,"MEAN_MOTION_DDOT":0}]
